[{"OBJECT_NAME":"STARLINK-34822","OBJECT_ID":"2025-167J","EPOCH":"2026-03-09T03:50:45.727008","MEAN_MOTION":15.30285074,"ECCENTRICITY":0.00015366,"INCLINATION":53.1617,"RA_OF_ASC_NODE":29.4811,"ARG_OF_PERICENTER":83.8991,"MEAN_ANOMALY":276.2184,"EPHEMERIS_TYPE":0,"CLASSIFICATION_TYPE":"U","NORAD_CAT_ID":65086,"ELEMENT_SET_NO":999,"REV_AT_EPOCH":3339,"BSTAR":0.0023197424,"MEAN_MOTION_DOT":0.00069169,"MEAN_MOTION_DDOT":0},{"OBJECT_NAME":"IRIDIUM 45","OBJECT_ID":"1997-082A","EPOCH":"2026-03-09T19:43:04.689120","MEAN_MOTION":15.36676082,"ECCENTRICITY":0.00899413,"INCLINATION":86.3479,"RA_OF_ASC_NODE":277.5722,"ARG_OF_PERICENTER":47.6509,"MEAN_ANOMALY":313.2314,"EPHEMERIS_TYPE":0,"CLASSIFICATION_TYPE":"U","NORAD_CAT_ID":25104,"ELEMENT_SET_NO":999,"REV_AT_EPOCH":49262,"BSTAR":0.00064625537,"MEAN_MOTION_DOT":0.00026618,"MEAN_MOTION_DDOT":0}]
